SAOCOM 1A
1 43641U 18076A   25358.28371779  .00000149  00000+0  25240-4 0  9997
2 43641  97.8841 182.5373 0001392  83.2560 276.8811 14.82143285390198